[{"CCSDS_OMM_VERS":"2.0","COMMENT":"GENERATED VIA SPACE-TRACK.ORG API","CREATION_DATE":"2017-07-25T08:53:59","ORIGINATOR":"18 SPCS","OBJECT_NAME":"UPSAT","OBJECT_ID":"1998-067LX","CENTER_NAME":"EARTH","REF_FRAME":"TEME","TIME_SYSTEM":"UTC","MEAN_ELEMENT_THEORY":"SGP4","EPOCH":"2017-07-25T05:21:04.644288","MEAN_MOTION":"15.56597027","ECCENTRICITY":"0.00054350","INCLINATION":"51.6381","RA_OF_ASC_NODE":"207.8845","ARG_OF_PERICENTER":"97.1590","MEAN_ANOMALY":"263.0019","EPHEMERIS_TYPE":"0","CLASSIFICATION_TYPE":"U","NORAD_CAT_ID":"42716","ELEMENT_SET_NO":"999","REV_AT_EPOCH":"1056","BSTAR":"0.00017614000000","MEAN_MOTION_DOT":"0.00012299","MEAN_MOTION_DDOT":"0.0000000000000","SEMIMAJOR_AXIS":"6775.651","PERIOD":"92.509","APOAPSIS":"401.198","PERIAPSIS":"393.833","OBJECT_TYPE":"PAYLOAD","RCS_SIZE":"SMALL","COUNTRY_CODE":"GREC","LAUNCH_DATE":"1998-11-20","SITE":"TTMTR","DECAY_DATE":null,"FILE":"2165395","GP_ID":"112834763","TLE_LINE0":"0 UPSAT","TLE_LINE1":"1 42716U 98067LX  17206.22297042 +.00012299 +00000-0 +17614-3 0  9999","TLE_LINE2":"2 42716 051.6381 207.8845 0005435 097.1590 263.0019 15.56597027010568"},{"CCSDS_OMM_VERS":"2.0","COMMENT":"GENERATED VIA SPACE-TRACK.ORG API","CREATION_DATE":"2017-07-26T16:13:23","ORIGINATOR":"18 SPCS","OBJECT_NAME":"UPSAT","OBJECT_ID":"1998-067LX","CENTER_NAME":"EARTH","REF_FRAME":"TEME","TIME_SYSTEM":"UTC","MEAN_ELEMENT_THEORY":"SGP4","EPOCH":"2017-07-25T20:45:33.222240","MEAN_MOTION":"15.56611338","ECCENTRICITY":"0.00054320","INCLINATION":"51.6382","RA_OF_ASC_NODE":"204.6720","ARG_OF_PERICENTER":"99.4791","MEAN_ANOMALY":"260.6815","EPHEMERIS_TYPE":"0","CLASSIFICATION_TYPE":"U","NORAD_CAT_ID":"42716","ELEMENT_SET_NO":"999","REV_AT_EPOCH":"1066","BSTAR":"0.00016401000000","MEAN_MOTION_DOT":"0.00011423","MEAN_MOTION_DDOT":"0.0000000000000","SEMIMAJOR_AXIS":"6775.609","PERIOD":"92.508","APOAPSIS":"401.155","PERIAPSIS":"393.794","OBJECT_TYPE":"PAYLOAD","RCS_SIZE":"SMALL","COUNTRY_CODE":"GREC","LAUNCH_DATE":"1998-11-20","SITE":"TTMTR","DECAY_DATE":null,"FILE":"2165399","GP_ID":"112870607","TLE_LINE0":"0 UPSAT","TLE_LINE1":"1 42716U 98067LX  17206.86496785 +.00011423 +00000-0 +16401-3 0  9995","TLE_LINE2":"2 42716 051.6382 204.6720 0005432 099.4791 260.6815 15.56611338010661"},{"CCSDS_OMM_VERS":"2.0","COMMENT":"GENERATED VIA SPACE-TRACK.ORG API","CREATION_DATE":"2017-07-26T08:36:54","ORIGINATOR":"18 SPCS","OBJECT_NAME":"UPSAT","OBJECT_ID":"1998-067LX","CENTER_NAME":"EARTH","REF_FRAME":"TEME","TIME_SYSTEM":"UTC","MEAN_ELEMENT_THEORY":"SGP4","EPOCH":"2017-07-26T06:00:14.071104","MEAN_MOTION":"15.56622160","ECCENTRICITY":"0.00054230","INCLINATION":"51.6384","RA_OF_ASC_NODE":"202.7447","ARG_OF_PERICENTER":"100.8981","MEAN_ANOMALY":"259.2621","EPHEMERIS_TYPE":"0","CLASSIFICATION_TYPE":"U","NORAD_CAT_ID":"42716","ELEMENT_SET_NO":"999","REV_AT_EPOCH":"1072","BSTAR":"0.00017294000000","MEAN_MOTION_DOT":"0.00012078","MEAN_MOTION_DDOT":"0.0000000000000","SEMIMAJOR_AXIS":"6775.578","PERIOD":"92.507","APOAPSIS":"401.117","PERIAPSIS":"393.768","OBJECT_TYPE":"PAYLOAD","RCS_SIZE":"SMALL","COUNTRY_CODE":"GREC","LAUNCH_DATE":"1998-11-20","SITE":"TTMTR","DECAY_DATE":null,"FILE":"2165398","GP_ID":"112863339","TLE_LINE0":"0 UPSAT","TLE_LINE1":"1 42716U 98067LX  17207.25016286 +.00012078 +00000-0 +17294-3 0  9991","TLE_LINE2":"2 42716 051.6384 202.7447 0005423 100.8981 259.2621 15.56622160010727"},{"CCSDS_OMM_VERS":"2.0","COMMENT":"GENERATED VIA SPACE-TRACK.ORG API","CREATION_DATE":"2017-07-27T05:20:38","ORIGINATOR":"18 SPCS","OBJECT_NAME":"UPSAT","OBJECT_ID":"1998-067LX","CENTER_NAME":"EARTH","REF_FRAME":"TEME","TIME_SYSTEM":"UTC","MEAN_ELEMENT_THEORY":"SGP4","EPOCH":"2017-07-26T22:57:08.420544","MEAN_MOTION":"15.56639355","ECCENTRICITY":"0.00054210","INCLINATION":"51.6385","RA_OF_ASC_NODE":"199.2109","ARG_OF_PERICENTER":"103.1587","MEAN_ANOMALY":"257.0010","EPHEMERIS_TYPE":"0","CLASSIFICATION_TYPE":"U","NORAD_CAT_ID":"42716","ELEMENT_SET_NO":"999","REV_AT_EPOCH":"1083","BSTAR":"0.00015887000000","MEAN_MOTION_DOT":"0.00011061","MEAN_MOTION_DDOT":"0.0000000000000","SEMIMAJOR_AXIS":"6775.528","PERIOD":"92.506","APOAPSIS":"401.066","PERIAPSIS":"393.720","OBJECT_TYPE":"PAYLOAD","RCS_SIZE":"SMALL","COUNTRY_CODE":"GREC","LAUNCH_DATE":"1998-11-20","SITE":"TTMTR","DECAY_DATE":null,"FILE":"2165400","GP_ID":"112882763","TLE_LINE0":"0 UPSAT","TLE_LINE1":"1 42716U 98067LX  17207.95634746 +.00011061 +00000-0 +15887-3 0  9992","TLE_LINE2":"2 42716 051.6385 199.2109 0005421 103.1587 257.0010 15.56639355010833"},{"CCSDS_OMM_VERS":"2.0","COMMENT":"GENERATED VIA SPACE-TRACK.ORG API","CREATION_DATE":"2017-07-28T06:26:39","ORIGINATOR":"18 SPCS","OBJECT_NAME":"UPSAT","OBJECT_ID":"1998-067LX","CENTER_NAME":"EARTH","REF_FRAME":"TEME","TIME_SYSTEM":"UTC","MEAN_ELEMENT_THEORY":"SGP4","EPOCH":"2017-07-27T20:31:22.172736","MEAN_MOTION":"15.56657523","ECCENTRICITY":"0.00054240","INCLINATION":"51.6387","RA_OF_ASC_NODE":"194.7137","ARG_OF_PERICENTER":"105.9339","MEAN_ANOMALY":"254.2251","EPHEMERIS_TYPE":"0","CLASSIFICATION_TYPE":"U","NORAD_CAT_ID":"42716","ELEMENT_SET_NO":"999","REV_AT_EPOCH":"1097","BSTAR":"0.00013225000000","MEAN_MOTION_DOT":"0.00009128","MEAN_MOTION_DDOT":"0.0000000000000","SEMIMAJOR_AXIS":"6775.475","PERIOD":"92.505","APOAPSIS":"401.015","PERIAPSIS":"393.665","OBJECT_TYPE":"PAYLOAD","RCS_SIZE":"SMALL","COUNTRY_CODE":"GREC","LAUNCH_DATE":"1998-11-20","SITE":"TTMTR","DECAY_DATE":null,"FILE":"2165402","GP_ID":"112896001","TLE_LINE0":"0 UPSAT","TLE_LINE1":"1 42716U 98067LX  17208.85511774 +.00009128 +00000-0 +13225-3 0  9992","TLE_LINE2":"2 42716 051.6387 194.7137 0005424 105.9339 254.2251 15.56657523010972"},{"CCSDS_OMM_VERS":"2.0","COMMENT":"GENERATED VIA SPACE-TRACK.ORG API","CREATION_DATE":"2017-07-29T04:55:39","ORIGINATOR":"18 SPCS","OBJECT_NAME":"UPSAT","OBJECT_ID":"1998-067LX","CENTER_NAME":"EARTH","REF_FRAME":"TEME","TIME_SYSTEM":"UTC","MEAN_ELEMENT_THEORY":"SGP4","EPOCH":"2017-07-28T21:10:28.176384","MEAN_MOTION":"15.56681077","ECCENTRICITY":"0.00054130","INCLINATION":"51.6388","RA_OF_ASC_NODE":"189.5737","ARG_OF_PERICENTER":"109.8065","MEAN_ANOMALY":"250.3511","EPHEMERIS_TYPE":"0","CLASSIFICATION_TYPE":"U","NORAD_CAT_ID":"42716","ELEMENT_SET_NO":"999","REV_AT_EPOCH":"1113","BSTAR":"0.00016170000000","MEAN_MOTION_DOT":"0.00011285","MEAN_MOTION_DDOT":"0.0000000000000","SEMIMAJOR_AXIS":"6775.407","PERIOD":"92.504","APOAPSIS":"400.939","PERIAPSIS":"393.604","OBJECT_TYPE":"PAYLOAD","RCS_SIZE":"SMALL","COUNTRY_CODE":"GREC","LAUNCH_DATE":"1998-11-20","SITE":"TTMTR","DECAY_DATE":null,"FILE":"2165404","GP_ID":"112908880","TLE_LINE0":"0 UPSAT","TLE_LINE1":"1 42716U 98067LX  17209.88227056 +.00011285 +00000-0 +16170-3 0  9992","TLE_LINE2":"2 42716 051.6388 189.5737 0005413 109.8065 250.3511 15.56681077011134"},{"CCSDS_OMM_VERS":"2.0","COMMENT":"GENERATED VIA SPACE-TRACK.ORG API","CREATION_DATE":"2017-07-30T04:44:00","ORIGINATOR":"18 SPCS","OBJECT_NAME":"UPSAT","OBJECT_ID":"1998-067LX","CENTER_NAME":"EARTH","REF_FRAME":"TEME","TIME_SYSTEM":"UTC","MEAN_ELEMENT_THEORY":"SGP4","EPOCH":"2017-07-29T21:49:32.815776","MEAN_MOTION":"15.56703953","ECCENTRICITY":"0.00053970","INCLINATION":"51.6387","RA_OF_ASC_NODE":"184.4339","ARG_OF_PERICENTER":"113.3625","MEAN_ANOMALY":"246.7935","EPHEMERIS_TYPE":"0","CLASSIFICATION_TYPE":"U","NORAD_CAT_ID":"42716","ELEMENT_SET_NO":"999","REV_AT_EPOCH":"1129","BSTAR":"0.00014694000000","MEAN_MOTION_DOT":"0.00010217","MEAN_MOTION_DDOT":"0.0000000000000","SEMIMAJOR_AXIS":"6775.340","PERIOD":"92.503","APOAPSIS":"400.862","PERIAPSIS":"393.549","OBJECT_TYPE":"PAYLOAD","RCS_SIZE":"SMALL","COUNTRY_CODE":"GREC","LAUNCH_DATE":"1998-11-20","SITE":"TTMTR","DECAY_DATE":null,"FILE":"2165407","GP_ID":"112921226","TLE_LINE0":"0 UPSAT","TLE_LINE1":"1 42716U 98067LX  17210.90940759 +.00010217 +00000-0 +14694-3 0  9992","TLE_LINE2":"2 42716 051.6387 184.4339 0005397 113.3625 246.7935 15.56703953011292"},{"CCSDS_OMM_VERS":"2.0","COMMENT":"GENERATED VIA SPACE-TRACK.ORG API","CREATION_DATE":"2017-07-31T05:12:48","ORIGINATOR":"18 SPCS","OBJECT_NAME":"UPSAT","OBJECT_ID":"1998-067LX","CENTER_NAME":"EARTH","REF_FRAME":"TEME","TIME_SYSTEM":"UTC","MEAN_ELEMENT_THEORY":"SGP4","EPOCH":"2017-07-30T20:56:09.779424","MEAN_MOTION":"15.56723325","ECCENTRICITY":"0.00054160","INCLINATION":"51.6386","RA_OF_ASC_NODE":"179.6150","ARG_OF_PERICENTER":"117.4318","MEAN_ANOMALY":"242.7225","EPHEMERIS_TYPE":"0","CLASSIFICATION_TYPE":"U","NORAD_CAT_ID":"42716","ELEMENT_SET_NO":"999","REV_AT_EPOCH":"1144","BSTAR":"0.00013840000000","MEAN_MOTION_DOT":"0.00009600","MEAN_MOTION_DDOT":"0.0000000000000","SEMIMAJOR_AXIS":"6775.284","PERIOD":"92.501","APOAPSIS":"400.819","PERIAPSIS":"393.480","OBJECT_TYPE":"PAYLOAD","RCS_SIZE":"SMALL","COUNTRY_CODE":"GREC","LAUNCH_DATE":"1998-11-20","SITE":"TTMTR","DECAY_DATE":null,"FILE":"2165409","GP_ID":"112933508","TLE_LINE0":"0 UPSAT","TLE_LINE1":"1 42716U 98067LX  17211.87233541 +.00009600 +00000-0 +13840-3 0  9999","TLE_LINE2":"2 42716 051.6386 179.6150 0005416 117.4318 242.7225 15.56723325011444"}]